ONEWEB-0528             
1 54643U 22166B   23288.45087642  .00000048  00000+0  83751-4 0  9997
2 54643  87.9197  78.2268 0001775  87.7527 272.3811 13.21769012 42646
ONEWEB-0539             
1 54644U 22166C   23288.48781543  .00000213  00000+0  48233-3 0  9991
2 54644  87.9200  78.2189 0002009  95.6608 264.4755 13.22058421 42648
ONEWEB-0540             
1 54645U 22166D   23288.48150264 -.00000059  00000+0 -17537-3 0  9995
2 54645  87.9201  78.2456 0002048  94.5373 265.5995 13.21728469 42639
ONEWEB-0542             
1 54646U 22166E   23288.49678247 -.00000047  00000+0 -14538-3 0  9998
2 54646  87.9197  78.2175 0001991 108.2792 251.8559 13.21881261 42641
ONEWEB-0545             
1 54647U 22166F   23288.46347176  .00000022  00000+0  20714-4 0  9995
2 54647  87.9199  78.2645 0002272  97.8168 262.3224 13.21777693 42604
ONEWEB-0580             
1 54648U 22166G   23288.81577800 -.00000019  00000+0 -76633-4 0  9993
2 54648  87.9195  78.1494 0002001 109.8300 250.3050 13.22058958 43156
ONEWEB-0582             
1 54649U 22166H   23288.47880097 -.00000074  00000+0 -21104-3 0  9994
2 54649  87.9201  78.2558 0002036  89.7276 270.4092 13.21576302 42620
ONEWEB-0583             
1 54650U 22166J   23288.49048548  .00000010  00000+0 -70919-5 0  9994
2 54650  87.9199  78.2601 0001517  79.0578 281.0727 13.21872275 42639
